ORBCOMM FM06            
1 25118U 97084G   26193.32638547  .00000536  00000+0  18331-3 0  9996
2 25118  45.0142 291.6869 0001341 223.9962 167.8068 14.47623379498034
ORBCOMM FM04            
1 25159U 98007C   26195.00949914  .00000349  00000+0  16504-3 0  9999
2 25159 107.9633 224.6256 0041952 278.8963  80.7429 14.35783274480448
ORBCOMM FM19            
1 25415U 98046C   26195.16277058  .00000436  00000+0  18386-3 0  9994
2 25415  44.9932 115.3303 0003277  55.9416  83.6724 14.39540374460667
ORBCOMM FM20            
1 25416U 98046D   26193.23044279  .00000323  00000+0  15202-3 0  9997
2 25416  44.9931 132.7157 0001680 341.6287  18.4501 14.38097395460392
ORBCOMM FM27            
1 25481U 98053G   26192.48362371  .00000334  00000+0  15260-3 0  9995
2 25481  45.0035 219.9500 0002441 278.1343  81.9229 14.39181226453734
ORBCOMM FM32            
1 25982U 99065C   26194.98412875  .00000273  00000+0  13828-3 0  9997
2 25982  45.0157  46.3955 0005566 186.3791 173.6987 14.37167121390948
ORBCOMM FM109           
1 40086U 14040A   26194.32878598  .00000128  00000+0  63382-4 0  9995
2 40086  47.0045 327.8904 0001579 316.6672  43.4090 14.58871574638160
ORBCOMM FM110           
1 41182U 15081D   26195.08697596  .00000161  00000+0  70352-4 0  9992
2 41182  47.0007 234.2501 0003559 218.6443 141.4189 14.58917166561551
ORBCOMM FM118           
1 41183U 15081E   26194.16260672  .00000078  00000+0  52835-4 0  9995
2 41183  47.0027 238.9585 0002790 176.7782 183.3122 14.58902986561526
ORBCOMM FM112           
1 41184U 15081F   26195.19390351  .00000307  00000+0  10101-3 0  9992
2 41184  46.9979 142.5348 0003747 324.3551  35.7084 14.58937849562890
ORBCOMM FM113           
1 41185U 15081G   26194.96600615  .00000120  00000+0  61583-4 0  9998
2 41185  46.9998 144.0028 0002291 316.8061  43.2645 14.58881339562843
ORBCOMM FM108           
1 41187U 15081J   26194.99651072  .00000281  00000+0  95665-4 0  9992
2 41187  47.0054  55.4394 0002725 317.7422  42.3254 14.58909612563992
ORBCOMM FM117           
1 41188U 15081K   26195.03071966  .00000261  00000+0  91426-4 0  9996
2 41188  47.0017  53.9050 0003142 325.0057  35.0622 14.58896753564040
ORBCOMM FM116           
1 41189U 15081L   26194.25753558  .00000069  00000+0  50849-4 0  9994
2 41189  47.0013 147.3497 0001541 225.9507 134.1252 14.58904456562744
